[{"OBJECT_NAME":"SITRO-AIS 19","OBJECT_ID":"2024-199AA","EPOCH":"2026-03-09T22:55:52.374720","MEAN_MOTION":14.97361264,"ECCENTRICITY":0.00068965,"INCLINATION":97.3309,"RA_OF_ASC_NODE":274.6556,"ARG_OF_PERICENTER":52.1847,"MEAN_ANOMALY":307.9999,"EPHEMERIS_TYPE":0,"CLASSIFICATION_TYPE":"U","NORAD_CAT_ID":61759,"ELEMENT_SET_NO":999,"REV_AT_EPOCH":12028,"BSTAR":0.00032569983,"MEAN_MOTION_DOT":3.731e-5,"MEAN_MOTION_DDOT":0},{"OBJECT_NAME":"STARLINK-36055","OBJECT_ID":"2025-280AB","EPOCH":"2026-03-09T21:27:22.920192","MEAN_MOTION":14.98334393,"ECCENTRICITY":0.00023297,"INCLINATION":70.0024,"RA_OF_ASC_NODE":334.0534,"ARG_OF_PERICENTER":240.6927,"MEAN_ANOMALY":119.4,"EPHEMERIS_TYPE":0,"CLASSIFICATION_TYPE":"U","NORAD_CAT_ID":66846,"ELEMENT_SET_NO":999,"REV_AT_EPOCH":1611,"BSTAR":0.00054216839,"MEAN_MOTION_DOT":6.383e-5,"MEAN_MOTION_DDOT":0}]
